KUZGTU 1 (RS47S)        
1 57217U 23091AV  26160.11933742  .00010934  00000+0  38200-3 0  9994
2 57217  97.5067 224.5181 0012338 122.8475 237.3955 15.29674624163142
SONATE-2                
1 59112U 24043Q   26159.98365492  .00032510  00000+0  43231-3 0  9996
2 59112  97.5525 309.8812 0006639 223.4398 136.6335 15.58104995126619
MESAT1                  
1 60209U 24125G   26160.10233191  .00046749  00000+0  52746-3 0  9992
2 60209  97.2315  17.4056 0008819 236.3134 123.7285 15.62333270108309
OOV-CUBE (TUBSAT-30)    
1 60240U 24128F   26159.80454764  .00002654  00000+0  20896-3 0  9994
2 60240  61.9950 254.8019 0045688 131.8693 228.6311 15.02739260104851
COLIBRI-S (RS67S)       
1 61746U 24199M   26160.17328212  .00019601  00000+0  38411-3 0  9996
2 61746  97.3008  33.9561 0006577 317.3837  42.6902 15.47391745136174
HORS 3 (RS81S)          
1 61753U 24199U   26160.17278108  .00031543  00000+0  48076-3 0  9999
2 61753  97.2991  35.8570 0004236 326.2953  33.8031 15.54419181136315
HORS 4 (RS82S)          
1 61754U 24199V   26160.15706626  .00045095  00000+0  58028-3 0  9994
2 61754  97.2940  36.9914 0003180 313.6334  46.4658 15.58934051136399
ARCTICSAT 1 (RS74S)     
1 61762U 24199AD  26159.53404542  .01003063  58354-3  11763-2 0  9998
2 61762  97.2853  43.1177 0008139 201.8763 158.2174 16.08763925136734
SIT-2086                
1 61764U 24199AF  26160.14128782  .00033574  00000+0  54751-3 0  9993
2 61764  97.2949  36.3294 0004471 296.9642  63.1154 15.52530261133183
HYPERVIEW 1G (RS66S)    
1 61772U 24199AP  26159.86541316  .00099538  00000+0  70384-3 0  9993
2 61772  97.2892  39.1771 0002039 275.6858  84.4174 15.73707202133363
ALTAIR (RS65S)          
1 61779U 24199AW  26160.16906569  .00010399  00000+0  29005-3 0  9992
2 61779  97.3044  29.5734 0011918 343.1343  16.9503 15.36868882135884
ASRTU-1 (AO-123)        
1 61781U 24199AY  26160.15000981  .00006610  00000+0  19308-3 0  9993
2 61781  97.3015  28.8935 0013141 345.2867  14.7993 15.35559744132692
SAMSAT-IONOSPHERE (RS7*)
1 61784U 24199BB  26160.15581311  .00041527  00000+0  57591-3 0  9999
2 61784  97.2962  35.8579 0006251 318.5591  41.5190 15.56927957136316
RTU MIREA 1 (RS51S)     
1 61785U 24199BC  26160.19761123  .00053792  00000+0  65809-3 0  9993
2 61785  97.2951  36.6923 0005691 312.1540  47.9233 15.60219831133223
TEVEL2-4                
1 63213U 25052D   26158.66121393  .00020438  00000+0  61719-3 0  9995
2 63213  97.3922  55.0407 0004354 120.1889 239.9786 15.34277122 68658
TEVEL2-5                
1 63214U 25052E   26160.18084484  .00016193  00000+0  49157-3 0  9990
2 63214  97.3911  56.5103 0004422 119.9533 240.2150 15.34159706 68886
TEVEL2-6                
1 63215U 25052F   26159.21458765  .00015702  00000+0  47787-3 0  9992
2 63215  97.3912  55.5275 0004415 121.5489 238.6185 15.34088018 68738
TEVEL2-1                
1 63217U 25052H   26159.24053252  .00015233  00000+0  47132-3 0  9992
2 63217  97.3889  55.1881 0004189 130.0273 230.1338 15.33568729 68723
TEVEL2-3                
1 63218U 25052J   26159.23549191  .00015170  00000+0  46859-3 0  9999
2 63218  97.3889  55.2041 0004279 131.4338 228.7272 15.33621807 68727
TEVEL2-2                
1 63219U 25052K   26159.69763688  .00018164  00000+0  56087-3 0  9999
2 63219  97.3887  55.6477 0004230 131.0442 229.1167 15.33595395 68799
TEVEL2-9                
1 63237U 25052AD  26159.20683054  .00013734  00000+0  45172-3 0  9995
2 63237  97.3948  54.5513 0006909 156.1696 203.9867 15.31621079 68659
TEVEL2-7                
1 63238U 25052AE  26159.24603484  .00013747  00000+0  45614-3 0  9994
2 63238  97.3948  54.5102 0007004 156.9865 203.1691 15.31335451 68650
TEVEL2-8                
1 63239U 25052AF  26159.45022968  .00013909  00000+0  46163-3 0  9990
2 63239  97.3950  54.6910 0007062 156.6692 203.4871 15.31323830 68685
INNOSAT 16 (RS92S7)     
1 64878U 25155C   26160.19587211  .00004954  00000+0  19901-3 0  9994
2 64878  97.4558 127.3496 0009591 204.1440 155.9350 15.25371887 79454
GEOSCAN 6 (RS92S6)      
1 64879U 25155D   26160.13758258  .00008685  00000+0  30148-3 0  9991
2 64879  97.4550 128.6592 0007253 189.7937 170.3163 15.29999373 79532
GEOSCAN 1 (RS92S1)      
1 64880U 25155E   26160.14312887  .00009134  00000+0  31127-3 0  9996
2 64880  97.4547 128.8058 0007187 189.4503 170.6603 15.30582632 79542
239ALFEROV (RS61S)      
1 64881U 25155F   26160.18942071  .00012596  00000+0  40058-3 0  9994
2 64881  97.4547 129.3872 0006875 185.6857 174.4308 15.32725083 79585
GEOSCAN 2 (RS92S2)      
1 64890U 25155Q   26160.13823759  .00009457  00000+0  31948-3 0  9990
2 64890  97.4546 128.9502 0007074 174.6938 185.4379 15.30854919 79555
GEOSCAN 5 (RS92S5)      
1 64891U 25155R   26160.18010471  .00012372  00000+0  38973-3 0  9990
2 64891  97.4540 129.5122 0005566 188.6116 171.5031 15.33043558 79599
GEOSCAN 4 (RS92S4)      
1 64892U 25155S   26160.16508851  .00012309  00000+0  38593-3 0  9991
2 64892  97.4544 129.5433 0005608 189.2500 170.8639 15.33192569 79593
