OBJECT_NAME,OBJECT_ID,EPOCH,MEAN_MOTION,ECCENTRICITY,INCLINATION,RA_OF_ASC_NODE,ARG_OF_PERICENTER,MEAN_ANOMALY,EPHEMERIS_TYPE,CLASSIFICATION_TYPE,NORAD_CAT_ID,ELEMENT_SET_NO,REV_AT_EPOCH,BSTAR,MEAN_MOTION_DOT,MEAN_MOTION_DDOT
KUZGTU 1 (RS47S),2023-091AV,2026-06-09T02:51:50.753088,15.29674624,.0012338,97.5067,224.5181,122.8475,237.3955,0,U,57217,999,16314,.382E-3,.10934E-3,0
SONATE-2,2024-043Q,2026-06-08T23:36:27.785088,15.58104995,.0006639,97.5525,309.8812,223.4398,136.6335,0,U,59112,999,12661,.43231E-3,.3251E-3,0
MESAT1,2024-125G,2026-06-09T02:27:21.477024,15.62333270,.0008819,97.2315,17.4056,236.3134,123.7285,0,U,60209,999,10830,.52746E-3,.46749E-3,0
OOV-CUBE (TUBSAT-30),2024-128F,2026-06-08T19:18:32.916096,15.02739260,.0045688,61.9950,254.8019,131.8693,228.6311,0,U,60240,999,10485,.20896E-3,.2654E-4,0
COLIBRI-S (RS67S),2024-199M,2026-06-09T04:09:31.575168,15.47391745,.0006577,97.3008,33.9561,317.3837,42.6902,0,U,61746,999,13617,.38411E-3,.19601E-3,0
HORS 3 (RS81S),2024-199U,2026-06-09T04:08:48.285312,15.54419181,.0004236,97.2991,35.8570,326.2953,33.8031,0,U,61753,999,13631,.48076E-3,.31543E-3,0
HORS 4 (RS82S),2024-199V,2026-06-09T03:46:10.524864,15.58934051,.000318,97.2940,36.9914,313.6334,46.4658,0,U,61754,999,13639,.58028E-3,.45095E-3,0
ARCTICSAT 1 (RS74S),2024-199AD,2026-06-08T12:49:01.524288,16.08763925,.00081397,97.2853,43.1177,201.8763,158.2174,0,U,61762,999,13673,.11762807E-2,.1003063E-1,.58353958E-3
SIT-2086,2024-199AF,2026-06-09T03:23:27.267648,15.52530261,.0004471,97.2949,36.3294,296.9642,63.1154,0,U,61764,999,13318,.54751E-3,.33574E-3,0
HYPERVIEW 1G (RS66S),2024-199AP,2026-06-08T20:46:11.697024,15.73707202,.0002039,97.2892,39.1771,275.6858,84.4174,0,U,61772,999,13336,.70384E-3,.99538E-3,0
ALTAIR (RS65S),2024-199AW,2026-06-09T04:03:27.275616,15.36868882,.0011918,97.3044,29.5734,343.1343,16.9503,0,U,61779,999,13588,.29005E-3,.10399E-3,0
ASRTU-1 (AO-123),2024-199AY,2026-06-09T03:36:00.847584,15.35559744,.0013141,97.3015,28.8935,345.2867,14.7993,0,U,61781,999,13269,.19308E-3,.661E-4,0
SAMSAT-IONOSPHERE (RS75S),2024-199BB,2026-06-09T03:44:22.252704,15.56927957,.0006251,97.2962,35.8579,318.5591,41.5190,0,U,61784,999,13631,.57591E-3,.41527E-3,0
RTU MIREA 1 (RS51S),2024-199BC,2026-06-09T04:44:33.610272,15.60219831,.0005691,97.2951,36.6923,312.1540,47.9233,0,U,61785,999,13322,.65809E-3,.53792E-3,0
TEVEL2-4,2025-052D,2026-06-07T15:52:08.883552,15.34277122,.00043543,97.3922,55.0407,120.1889,239.9786,0,U,63213,999,6865,.6171933E-3,.20438E-3,0
TEVEL2-5,2025-052E,2026-06-09T04:20:24.994176,15.34159706,.0004422,97.3911,56.5103,119.9533,240.2150,0,U,63214,999,6888,.49157E-3,.16193E-3,0
TEVEL2-6,2025-052F,2026-06-08T05:09:00.372960,15.34088018,.0004415,97.3912,55.5275,121.5489,238.6185,0,U,63215,999,6873,.47787E-3,.15702E-3,0
TEVEL2-1,2025-052H,2026-06-08T05:46:22.009728,15.33568729,.0004189,97.3889,55.1881,130.0273,230.1338,0,U,63217,999,6872,.47132E-3,.15233E-3,0
TEVEL2-3,2025-052J,2026-06-08T05:39:06.501024,15.33621807,.0004279,97.3889,55.2041,131.4338,228.7272,0,U,63218,999,6872,.46859E-3,.1517E-3,0
TEVEL2-2,2025-052K,2026-06-08T16:44:35.826432,15.33595395,.000423,97.3887,55.6477,131.0442,229.1167,0,U,63219,999,6879,.56087E-3,.18164E-3,0
TEVEL2-9,2025-052AD,2026-06-08T04:57:50.158656,15.31621079,.0006909,97.3948,54.5513,156.1696,203.9867,0,U,63237,999,6865,.45172E-3,.13734E-3,0
TEVEL2-7,2025-052AE,2026-06-08T05:54:17.410176,15.31335451,.00070046,97.3948,54.5102,156.9865,203.1691,0,U,63238,999,6865,.45613902E-3,.13747E-3,0
TEVEL2-8,2025-052AF,2026-06-08T10:48:19.844352,15.31323830,.00070622,97.3950,54.6910,156.6692,203.4871,0,U,63239,999,6868,.46162553E-3,.13909E-3,0
INNOSAT 16 (RS92S7),2025-155C,2026-06-09T04:42:03.350304,15.25371887,.0009591,97.4558,127.3496,204.1440,155.9350,0,U,64878,999,7945,.19901E-3,.4954E-4,0
GEOSCAN 6 (RS92S6),2025-155D,2026-06-09T03:18:07.134912,15.29999373,.0007253,97.4550,128.6592,189.7937,170.3163,0,U,64879,999,7953,.30148E-3,.8685E-4,0
GEOSCAN 1 (RS92S1),2025-155E,2026-06-09T03:26:06.334368,15.30582632,.0007187,97.4547,128.8058,189.4503,170.6603,0,U,64880,999,7954,.31127E-3,.9134E-4,0
239ALFEROV (RS61S),2025-155F,2026-06-09T04:32:45.949344,15.32725083,.0006875,97.4547,129.3872,185.6857,174.4308,0,U,64881,999,7958,.40058E-3,.12596E-3,0
GEOSCAN 2 (RS92S2),2025-155Q,2026-06-09T03:19:03.727776,15.30854919,.0007074,97.4546,128.9502,174.6938,185.4379,0,U,64890,999,7955,.31948E-3,.9457E-4,0
GEOSCAN 5 (RS92S5),2025-155R,2026-06-09T04:19:21.046944,15.33043558,.0005566,97.4540,129.5122,188.6116,171.5031,0,U,64891,999,7959,.38973E-3,.12372E-3,0
GEOSCAN 4 (RS92S4),2025-155S,2026-06-09T03:57:43.647264,15.33192569,.0005608,97.4544,129.5433,189.2500,170.8639,0,U,64892,999,7959,.38593E-3,.12309E-3,0
